{
  "type": "FeatureCollection",
  "features": [
    {
      "type": "Feature",
      "properties": {
        "norad_id": 45807,
        "name": "BEIDOU-3 G3 (C61)",
        "group": "gnss",
        "lat": -0.22438562989800206,
        "lon": 59.57271485357224,
        "alt_km": 35766.76102664695,
        "timestamp": "2025-12-20T14:38:02.214097+00:00",
        "meta_object_name": "BEIDOU-3 G3 (C61)",
        "meta_object_id": "2020-040A",
        "meta_epoch": "2025-12-20T03:16:38.784864",
        "meta_mean_motion": 1.00270592,
        "meta_eccentricity": 0.00064635,
        "meta_inclination": 2.0084,
        "meta_ra_of_asc_node": 66.6439,
        "meta_arg_of_pericenter": 309.446,
        "meta_mean_anomaly": 232.6241,
        "meta_ephemeris_type": 0,
        "meta_classification_type": "U",
        "meta_norad_cat_id": 45807,
        "meta_element_set_no": 999,
        "meta_rev_at_epoch": 2027,
        "meta_bstar": 0,
        "meta_mean_motion_dot": -3.31e-06,
        "meta_mean_motion_ddot": 0,
        "tle_line1": "1 45807U 20040A   25354.13656001 -.00000331  00000+0  00000+0 0  9997",
        "tle_line2": "2 45807   2.0084  66.6439 0006463 309.4460 232.6241  1.00270592 20276"
      },
      "geometry": {
        "type": "Point",
        "coordinates": [
          59.57271485357224,
          -0.22438562989800206
        ]
      }
    },
    {
      "type": "Feature",
      "properties": {
        "norad_id": 45854,
        "name": "GPS BIII-3  (PRN 23)",
        "group": "gnss",
        "lat": -56.46836526176423,
        "lon": -58.62686828380438,
        "alt_km": 20116.123700368094,
        "timestamp": "2025-12-20T14:38:02.214108+00:00",
        "meta_object_name": "GPS BIII-3  (PRN 23)",
        "meta_object_id": "2020-041A",
        "meta_epoch": "2025-12-19T05:46:39.794304",
        "meta_mean_motion": 2.00561972,
        "meta_eccentricity": 0.006061,
        "meta_inclination": 56.5512,
        "meta_ra_of_asc_node": 35.9326,
        "meta_arg_of_pericenter": 203.6529,
        "meta_mean_anomaly": 154.7875,
        "meta_ephemeris_type": 0,
        "meta_classification_type": "U",
        "meta_norad_cat_id": 45854,
        "meta_element_set_no": 999,
        "meta_rev_at_epoch": 4042,
        "meta_bstar": 0,
        "meta_mean_motion_dot": -6.4e-07,
        "meta_mean_motion_ddot": 0,
        "tle_line1": "1 45854U 20041A   25353.24073836 -.00000064  00000+0  00000+0 0  9993",
        "tle_line2": "2 45854  56.5512  35.9326 0060610 203.6529 154.7875  2.00561972 40429"
      },
      "geometry": {
        "type": "Point",
        "coordinates": [
          -58.62686828380438,
          -56.46836526176423
        ]
      }
    },
    {
      "type": "Feature",
      "properties": {
        "norad_id": 46114,
        "name": "GALAXY 30 (WAAS/PRN 135)",
        "group": "gnss",
        "lat": -0.004073166331405503,
        "lon": -176.06425648602038,
        "alt_km": 35785.127567040996,
        "timestamp": "2025-12-20T14:38:02.214120+00:00",
        "meta_object_name": "GALAXY 30 (WAAS/PRN 135)",
        "meta_object_id": "2020-056C",
        "meta_epoch": "2025-12-20T05:46:45.532128",
        "meta_mean_motion": 1.00273206,
        "meta_eccentricity": 0.00020308,
        "meta_inclination": 0.0015,
        "meta_ra_of_asc_node": 355.2926,
        "meta_arg_of_pericenter": 275.1149,
        "meta_mean_anomaly": 140.376,
        "meta_ephemeris_type": 0,
        "meta_classification_type": "U",
        "meta_norad_cat_id": 46114,
        "meta_element_set_no": 999,
        "meta_rev_at_epoch": 1949,
        "meta_bstar": 0,
        "meta_mean_motion_dot": 6e-07,
        "meta_mean_motion_ddot": 0,
        "tle_line1": "1 46114U 20056C   25354.24080477  .00000060  00000+0  00000+0 0  9994",
        "tle_line2": "2 46114   0.0015 355.2926 0002030 275.1149 140.3760  1.00273206 19495"
      },
      "geometry": {
        "type": "Point",
        "coordinates": [
          -176.06425648602038,
          -0.004073166331405503
        ]
      }
    },
    {
      "type": "Feature",
      "properties": {
        "norad_id": 46805,
        "name": "COSMOS 2547 (705K)",
        "group": "gnss",
        "lat": -10.276800077534741,
        "lon": -166.50712250763235,
        "alt_km": 19139.8670787489,
        "timestamp": "2025-12-20T14:38:02.214169+00:00",
        "meta_object_name": "COSMOS 2547 (705K)",
        "meta_object_id": "2020-075A",
        "meta_epoch": "2025-12-19T05:12:13.762080",
        "meta_mean_motion": 2.13100175,
        "meta_eccentricity": 0.0006125,
        "meta_inclination": 64.5965,
        "meta_ra_of_asc_node": 198.4802,
        "meta_arg_of_pericenter": 227.9307,
        "meta_mean_anomaly": 132.0972,
        "meta_ephemeris_type": 0,
        "meta_classification_type": "U",
        "meta_norad_cat_id": 46805,
        "meta_element_set_no": 999,
        "meta_rev_at_epoch": 4007,
        "meta_bstar": 0,
        "meta_mean_motion_dot": 1.06e-06,
        "meta_mean_motion_ddot": 0,
        "tle_line1": "1 46805U 20075A   25353.21682595  .00000106  00000+0  00000+0 0  9998",
        "tle_line2": "2 46805  64.5965 198.4802 0006125 227.9307 132.0972  2.13100175 40071"
      },
      "geometry": {
        "type": "Point",
        "coordinates": [
          -166.50712250763235,
          -10.276800077534741
        ]
      }
    },
    {
      "type": "Feature",
      "properties": {
        "norad_id": 46826,
        "name": "GPS BIII-4  (PRN 14)",
        "group": "gnss",
        "lat": -43.6055723529262,
        "lon": 81.82065385531489,
        "alt_km": 20045.24827787893,
        "timestamp": "2025-12-20T14:38:02.214188+00:00",
        "meta_object_name": "GPS BIII-4  (PRN 14)",
        "meta_object_id": "2020-078A",
        "meta_epoch": "2025-12-16T01:06:13.902336",
        "meta_mean_motion": 2.00566891,
        "meta_eccentricity": 0.0064755,
        "meta_inclination": 54.0145,
        "meta_ra_of_asc_node": 218.2068,
        "meta_arg_of_pericenter": 203.3828,
        "meta_mean_anomaly": 339.3936,
        "meta_ephemeris_type": 0,
        "meta_classification_type": "U",
        "meta_norad_cat_id": 46826,
        "meta_element_set_no": 999,
        "meta_rev_at_epoch": 3783,
        "meta_bstar": 0,
        "meta_mean_motion_dot": 6.7e-07,
        "meta_mean_motion_ddot": 0,
        "tle_line1": "1 46826U 20078A   25350.04599424  .00000067  00000+0  00000+0 0  9996",
        "tle_line2": "2 46826  54.0145 218.2068 0064755 203.3828 339.3936  2.00566891 37831"
      },
      "geometry": {
        "type": "Point",
        "coordinates": [
          81.82065385531489,
          -43.6055723529262
        ]
      }
    },
    {
      "type": "Feature",
      "properties": {
        "norad_id": 48859,
        "name": "GPS BIII-5  (PRN 11)",
        "group": "gnss",
        "lat": 47.04859533121186,
        "lon": 27.827968098025885,
        "alt_km": 20242.162224068765,
        "timestamp": "2025-12-20T14:38:02.214200+00:00",
        "meta_object_name": "GPS BIII-5  (PRN 11)",
        "meta_object_id": "2021-054A",
        "meta_epoch": "2025-12-08T04:14:32.423424",
        "meta_mean_motion": 2.00553627,
        "meta_eccentricity": 0.0024678,
        "meta_inclination": 55.2581,
        "meta_ra_of_asc_node": 340.1367,
        "meta_arg_of_pericenter": 233.3993,
        "meta_mean_anomaly": 212.8594,
        "meta_ephemeris_type": 0,
        "meta_classification_type": "U",
        "meta_norad_cat_id": 48859,
        "meta_element_set_no": 999,
        "meta_rev_at_epoch": 3292,
        "meta_bstar": 0,
        "meta_mean_motion_dot": -8.6e-07,
        "meta_mean_motion_ddot": 0,
        "tle_line1": "1 48859U 21054A   25342.17676416 -.00000086  00000+0  00000+0 0  9993",
        "tle_line2": "2 48859  55.2581 340.1367 0024678 233.3993 212.8594  2.00553627 32922"
      },
      "geometry": {
        "type": "Point",
        "coordinates": [
          27.827968098025885,
          47.04859533121186
        ]
      }
    },
    {
      "type": "Feature",
      "properties": {
        "norad_id": 49336,
        "name": "QZS-1R (QZSS/PRN 196)",
        "group": "gnss",
        "lat": 5.795048896702277,
        "lon": 89.94220114133957,
        "alt_km": 36011.825856562304,
        "timestamp": "2025-12-20T14:38:02.214214+00:00",
        "meta_object_name": "QZS-1R (QZSS/PRN 196)",
        "meta_object_id": "2021-096A",
        "meta_epoch": "2025-12-18T14:04:25.772160",
        "meta_mean_motion": 1.00255833,
        "meta_eccentricity": 0.07566602,
        "meta_inclination": 37.0895,
        "meta_ra_of_asc_node": 82.273,
        "meta_arg_of_pericenter": 271.433,
        "meta_mean_anomaly": 79.2664,
        "meta_ephemeris_type": 0,
        "meta_classification_type": "U",
        "meta_norad_cat_id": 49336,
        "meta_element_set_no": 999,
        "meta_rev_at_epoch": 1519,
        "meta_bstar": 0,
        "meta_mean_motion_dot": -2.72e-06,
        "meta_mean_motion_ddot": 0,
        "tle_line1": "1 49336U 21096A   25352.58640940 -.00000272  00000+0  00000+0 0  9996",
        "tle_line2": "2 49336  37.0895  82.2730 0756660 271.4330  79.2664  1.00255833 15198"
      },
      "geometry": {
        "type": "Point",
        "coordinates": [
          89.94220114133957,
          5.795048896702277
        ]
      }
    }
  ]
}